[{"OBJECT_NAME":"QIANFAN-16","OBJECT_ID":"2024-140R","EPOCH":"2026-03-09T21:51:43.552800","MEAN_MOTION":13.50998466,"ECCENTRICITY":0.00136929,"INCLINATION":88.971,"RA_OF_ASC_NODE":290.3718,"ARG_OF_PERICENTER":326.9882,"MEAN_ANOMALY":33.0413,"EPHEMERIS_TYPE":0,"CLASSIFICATION_TYPE":"U","NORAD_CAT_ID":60394,"ELEMENT_SET_NO":999,"REV_AT_EPOCH":7894,"BSTAR":0.00010191129,"MEAN_MOTION_DOT":7.8e-7,"MEAN_MOTION_DDOT":0},{"OBJECT_NAME":"THORAD AGENA D DEB","OBJECT_ID":"1970-025NQ","EPOCH":"2026-03-09T22:09:19.832544","MEAN_MOTION":13.52021521,"ECCENTRICITY":5.367e-5,"INCLINATION":100.1555,"RA_OF_ASC_NODE":42.695,"ARG_OF_PERICENTER":212.3937,"MEAN_ANOMALY":213.0122,"EPHEMERIS_TYPE":0,"CLASSIFICATION_TYPE":"U","NORAD_CAT_ID":10136,"ELEMENT_SET_NO":999,"REV_AT_EPOCH":75708,"BSTAR":0.00016987205,"MEAN_MOTION_DOT":6.4e-7,"MEAN_MOTION_DDOT":0}]
